{
    "links": {
        "self": "http://www.neowsapp.com/rest/v1/neo/3559548?api_key=iIulBulltgU6a56xZRHN4H3l9WmuAYTsLGpBGhQ2"
    },
    "id": "3559548",
    "neo_reference_id": "3559548",
    "name": "(2011 EX29)",
    "designation": "2011 EX29",
    "nasa_jpl_url": "http://ssd.jpl.nasa.gov/sbdb.cgi?sstr=3559548",
    "absolute_magnitude_h": 21.3,
    "estimated_diameter": {
        "kilometers": {
            "estimated_diameter_min": 0.1460679643,
            "estimated_diameter_max": 0.3266178974
        },
        "meters": {
            "estimated_diameter_min": 146.0679642714,
            "estimated_diameter_max": 326.6178974458
        },
        "miles": {
            "estimated_diameter_min": 0.090762397,
            "estimated_diameter_max": 0.2029508896
        },
        "feet": {
            "estimated_diameter_min": 479.2256199,
            "estimated_diameter_max": 1071.581062656
        }
    },
    "is_potentially_hazardous_asteroid": false,
    "close_approach_data": [
        {
            "close_approach_date": "2004-08-04",
            "close_approach_date_full": "2004-Aug-04 21:15",
            "epoch_date_close_approach": 1091654100000,
            "relative_velocity": {
                "kilometers_per_second": "31.1655187277",
                "kilometers_per_hour": "112195.8674198179",
                "miles_per_hour": "69714.148842053"
            },
            "miss_distance": {
                "astronomical": "0.286805781",
                "lunar": "111.567448809",
                "kilometers": "42905533.94128647",
                "miles": "26660262.538314486"
            },
            "orbiting_body": "Earth"
        },
        {
            "close_approach_date": "2011-03-01",
            "close_approach_date_full": "2011-Mar-01 21:32",
            "epoch_date_close_approach": 1299015120000,
            "relative_velocity": {
                "kilometers_per_second": "21.2931097271",
                "kilometers_per_hour": "76655.1950176277",
                "miles_per_hour": "47630.557148592"
            },
            "miss_distance": {
                "astronomical": "0.1856210889",
                "lunar": "72.2066035821",
                "kilometers": "27768519.526520643",
                "miles": "17254557.9292971534"
            },
            "orbiting_body": "Earth"
        }
    ],
    "orbital_data": {
        "orbit_id": "11",
        "orbit_determination_date": "2017-04-06 08:54:12",
        "first_observation_date": "2011-03-09",
        "last_observation_date": "2011-04-04",
        "data_arc_in_days": 26,
        "observations_used": 36,
        "orbit_uncertainty": "7",
        "minimum_orbit_intersection": ".142391",
        "jupiter_tisserand_invariant": "3.207",
        "epoch_osculation": "2459000.5",
        "eccentricity": ".7808799768440418",
        "semi_major_axis": "2.153701330356124",
        "inclination": "10.11700125640785",
        "ascending_node_longitude": "40.96044960653904",
        "orbital_period": "1154.454022617417",
        "perihelion_distance": ".4719190853786519",
        "perihelion_argument": "24.06883803779376",
        "aphelion_distance": "3.835483575333595",
        "perihelion_time": "2459044.612289569330",
        "mean_anomaly": "346.244212472876",
        "mean_motion": ".3118357188307905",
        "equinox": "J2000",
        "orbit_class": {
            "orbit_class_type": "APO",
            "orbit_class_description": "Near-Earth asteroid orbits which cross the Earth’s orbit similar to that of 1862 Apollo",
            "orbit_class_range": "a (semi-major axis) > 1.0 AU; q (perihelion) < 1.017 AU"
        }
    },
    "is_sentry_object": false
}